<?xml version="1.0"?>
<gpx version="1.1" creator="GDAL 3.6.3" xmlns:xsi="http://www.w3.org/2001/XMLSchema-instance" xmlns:ogr="http://osgeo.org/gdal" xmlns="http://www.topografix.com/GPX/1/1" xsi:schemaLocation="http://www.topografix.com/GPX/1/1 http://www.topografix.com/GPX/1/1/gpx.xsd">
<metadata><bounds minlat="38.892650915355901" minlon="-9.071970749495010" maxlat="38.901393496285301" maxlon="-9.052197616491069"/></metadata>                  
<trk>
  <name>Polígono sem nome</name>
  <trkseg>
    <trkpt lat="38.898255221066201" lon="-9.052841791927991">
        <ele>0.0</ele>
    </trkpt>
    <trkpt lat="38.8983637658338" lon="-9.05289579604508">
        <ele>0.0</ele>
    </trkpt>
    <trkpt lat="38.898354571029003" lon="-9.0529622347341">
        <ele>0.0</ele>
    </trkpt>
    <trkpt lat="38.898261636196899" lon="-9.053084980514679">
        <ele>0.0</ele>
    </trkpt>
    <trkpt lat="38.898203395440603" lon="-9.053153552787711">
        <ele>0.0</ele>
    </trkpt>
    <trkpt lat="38.898161659355402" lon="-9.05320198277006">
        <ele>0.0</ele>
    </trkpt>
    <trkpt lat="38.898017602900801" lon="-9.05341222943682">
        <ele>0.0</ele>
    </trkpt>
    <trkpt lat="38.897909493401301" lon="-9.053404727770859">
        <ele>0.0</ele>
    </trkpt>
    <trkpt lat="38.897777964922398" lon="-9.053344773258599">
        <ele>0.0</ele>
    </trkpt>
    <trkpt lat="38.897707413996599" lon="-9.053338812338581">
        <ele>0.0</ele>
    </trkpt>
    <trkpt lat="38.897673494194997" lon="-9.05348171504755">
        <ele>0.0</ele>
    </trkpt>
    <trkpt lat="38.897634109730397" lon="-9.05359311680979">
        <ele>0.0</ele>
    </trkpt>
    <trkpt lat="38.897541461255699" lon="-9.05386900144768">
        <ele>0.0</ele>
    </trkpt>
    <trkpt lat="38.897780555325298" lon="-9.05405740398005">
        <ele>0.0</ele>
    </trkpt>
    <trkpt lat="38.898138259276003" lon="-9.054386827504681">
        <ele>0.0</ele>
    </trkpt>
    <trkpt lat="38.8982429618734" lon="-9.054508794022">
        <ele>0.0</ele>
    </trkpt>
    <trkpt lat="38.898296647062203" lon="-9.054581385017761">
        <ele>0.0</ele>
    </trkpt>
    <trkpt lat="38.8982852779776" lon="-9.05463843359094">
        <ele>0.0</ele>
    </trkpt>
    <trkpt lat="38.897972533791702" lon="-9.055208891827521">
        <ele>0.0</ele>
    </trkpt>
    <trkpt lat="38.898218979650999" lon="-9.055369316527759">
        <ele>0.0</ele>
    </trkpt>
    <trkpt lat="38.898865245597001" lon="-9.055699978770059">
        <ele>0.0</ele>
    </trkpt>
    <trkpt lat="38.8989486225421" lon="-9.055776791646441">
        <ele>0.0</ele>
    </trkpt>
    <trkpt lat="38.8992033689726" lon="-9.05591912733818">
        <ele>0.0</ele>
    </trkpt>
    <trkpt lat="38.899392946503703" lon="-9.056049882861901">
        <ele>0.0</ele>
    </trkpt>
    <trkpt lat="38.8996634579781" lon="-9.05614357339392">
        <ele>0.0</ele>
    </trkpt>
    <trkpt lat="38.8998611601275" lon="-9.056179110017659">
        <ele>0.0</ele>
    </trkpt>
    <trkpt lat="38.900385575791297" lon="-9.05629023054783">
        <ele>0.0</ele>
    </trkpt>
    <trkpt lat="38.900449419976603" lon="-9.056382405088311">
        <ele>0.0</ele>
    </trkpt>
    <trkpt lat="38.900629513776501" lon="-9.05646870251355">
        <ele>0.0</ele>
    </trkpt>
    <trkpt lat="38.900745060858497" lon="-9.056619852784509">
        <ele>0.0</ele>
    </trkpt>
    <trkpt lat="38.900843597453097" lon="-9.05680826938093">
        <ele>0.0</ele>
    </trkpt>
    <trkpt lat="38.9009763683638" lon="-9.057041186696431">
        <ele>0.0</ele>
    </trkpt>
    <trkpt lat="38.901078555717604" lon="-9.057096397254909">
        <ele>0.0</ele>
    </trkpt>
    <trkpt lat="38.9011186824346" lon="-9.057162527749711">
        <ele>0.0</ele>
    </trkpt>
    <trkpt lat="38.901284070930799" lon="-9.057476041900459">
        <ele>0.0</ele>
    </trkpt>
    <trkpt lat="38.901375174384903" lon="-9.05764717052323">
        <ele>0.0</ele>
    </trkpt>
    <trkpt lat="38.901387985802899" lon="-9.057714918685701">
        <ele>0.0</ele>
    </trkpt>
    <trkpt lat="38.901228454511198" lon="-9.05770087305193">
        <ele>0.0</ele>
    </trkpt>
    <trkpt lat="38.900886373909799" lon="-9.057669161923">
        <ele>0.0</ele>
    </trkpt>
    <trkpt lat="38.900687223447697" lon="-9.05765959189209">
        <ele>0.0</ele>
    </trkpt>
    <trkpt lat="38.900621399997299" lon="-9.057718548318">
        <ele>0.0</ele>
    </trkpt>
    <trkpt lat="38.900599622601497" lon="-9.05781118505479">
        <ele>0.0</ele>
    </trkpt>
    <trkpt lat="38.900506005863903" lon="-9.057898949815019">
        <ele>0.0</ele>
    </trkpt>
    <trkpt lat="38.900393035486999" lon="-9.05821687959992">
        <ele>0.0</ele>
    </trkpt>
    <trkpt lat="38.900310308106398" lon="-9.058244105576771">
        <ele>0.0</ele>
    </trkpt>
    <trkpt lat="38.900116560776397" lon="-9.058284671168961">
        <ele>0.0</ele>
    </trkpt>
    <trkpt lat="38.900079330183402" lon="-9.058434375712499">
        <ele>0.0</ele>
    </trkpt>
    <trkpt lat="38.900065988064597" lon="-9.05868239878153">
        <ele>0.0</ele>
    </trkpt>
    <trkpt lat="38.900028787756597" lon="-9.058854828912979">
        <ele>0.0</ele>
    </trkpt>
    <trkpt lat="38.900050250383998" lon="-9.05893328229091">
        <ele>0.0</ele>
    </trkpt>
    <trkpt lat="38.900031779894299" lon="-9.05908216286438">
        <ele>0.0</ele>
    </trkpt>
    <trkpt lat="38.900023015675998" lon="-9.059258220120141">
        <ele>0.0</ele>
    </trkpt>
    <trkpt lat="38.900102405466299" lon="-9.059634762736829">
        <ele>0.0</ele>
    </trkpt>
    <trkpt lat="38.900229197442698" lon="-9.05998407092455">
        <ele>0.0</ele>
    </trkpt>
    <trkpt lat="38.900290587496798" lon="-9.06028025280818">
        <ele>0.0</ele>
    </trkpt>
    <trkpt lat="38.900188239934899" lon="-9.060303977001761">
        <ele>0.0</ele>
    </trkpt>
    <trkpt lat="38.900058090381997" lon="-9.0599458485555">
        <ele>0.0</ele>
    </trkpt>
    <trkpt lat="38.900003686894699" lon="-9.059775403018531">
        <ele>0.0</ele>
    </trkpt>
    <trkpt lat="38.899883476943401" lon="-9.059495327538009">
        <ele>0.0</ele>
    </trkpt>
    <trkpt lat="38.899671920462403" lon="-9.05919870785765">
        <ele>0.0</ele>
    </trkpt>
    <trkpt lat="38.8991381697452" lon="-9.058661659732831">
        <ele>0.0</ele>
    </trkpt>
    <trkpt lat="38.898917940113698" lon="-9.05841698248212">
        <ele>0.0</ele>
    </trkpt>
    <trkpt lat="38.898796243106801" lon="-9.05851518563586">
        <ele>0.0</ele>
    </trkpt>
    <trkpt lat="38.897765985435498" lon="-9.05707558819002">
        <ele>0.0</ele>
    </trkpt>
    <trkpt lat="38.897568074556197" lon="-9.05700069994125">
        <ele>0.0</ele>
    </trkpt>
    <trkpt lat="38.897430043956803" lon="-9.057264363085469">
        <ele>0.0</ele>
    </trkpt>
    <trkpt lat="38.897374031167502" lon="-9.05749906749868">
        <ele>0.0</ele>
    </trkpt>
    <trkpt lat="38.897331856882502" lon="-9.05773010067845">
        <ele>0.0</ele>
    </trkpt>
    <trkpt lat="38.8973348094448" lon="-9.057767855278369">
        <ele>0.0</ele>
    </trkpt>
    <trkpt lat="38.897308862654498" lon="-9.057811509922139">
        <ele>0.0</ele>
    </trkpt>
    <trkpt lat="38.897265954241199" lon="-9.05799772044624">
        <ele>0.0</ele>
    </trkpt>
    <trkpt lat="38.8971189681128" lon="-9.058313381109871">
        <ele>0.0</ele>
    </trkpt>
    <trkpt lat="38.897066799346298" lon="-9.05848335236106">
        <ele>0.0</ele>
    </trkpt>
    <trkpt lat="38.896795388609704" lon="-9.05835459678665">
        <ele>0.0</ele>
    </trkpt>
    <trkpt lat="38.896590635500097" lon="-9.05815084093118">
        <ele>0.0</ele>
    </trkpt>
    <trkpt lat="38.896486908452097" lon="-9.05797114935686">
        <ele>0.0</ele>
    </trkpt>
    <trkpt lat="38.896385543362399" lon="-9.057728291087059">
        <ele>0.0</ele>
    </trkpt>
    <trkpt lat="38.8962412998142" lon="-9.05791755219343">
        <ele>0.0</ele>
    </trkpt>
    <trkpt lat="38.8961415445076" lon="-9.058095052642891">
        <ele>0.0</ele>
    </trkpt>
    <trkpt lat="38.895973511806901" lon="-9.05826837750457">
        <ele>0.0</ele>
    </trkpt>
    <trkpt lat="38.896019796059697" lon="-9.058623910445331">
        <ele>0.0</ele>
    </trkpt>
    <trkpt lat="38.895998338897599" lon="-9.058994261755959">
        <ele>0.0</ele>
    </trkpt>
    <trkpt lat="38.896001323246303" lon="-9.05905935286968">
        <ele>0.0</ele>
    </trkpt>
    <trkpt lat="38.895958618078097" lon="-9.0590744446919">
        <ele>0.0</ele>
    </trkpt>
    <trkpt lat="38.895914549912199" lon="-9.059082818714341">
        <ele>0.0</ele>
    </trkpt>
    <trkpt lat="38.8958653536979" lon="-9.05906264949153">
        <ele>0.0</ele>
    </trkpt>
    <trkpt lat="38.895792871791599" lon="-9.059042879675159">
        <ele>0.0</ele>
    </trkpt>
    <trkpt lat="38.895740281016799" lon="-9.059028654306131">
        <ele>0.0</ele>
    </trkpt>
    <trkpt lat="38.895670048259099" lon="-9.05901205189962">
        <ele>0.0</ele>
    </trkpt>
    <trkpt lat="38.895598680888" lon="-9.05899615803764">
        <ele>0.0</ele>
    </trkpt>
    <trkpt lat="38.895543934601001" lon="-9.058972842361991">
        <ele>0.0</ele>
    </trkpt>
    <trkpt lat="38.895509396413701" lon="-9.05895118686399">
        <ele>0.0</ele>
    </trkpt>
    <trkpt lat="38.8954824681337" lon="-9.05891137390056">
        <ele>0.0</ele>
    </trkpt>
    <trkpt lat="38.8954565695513" lon="-9.058883399613361">
        <ele>0.0</ele>
    </trkpt>
    <trkpt lat="38.895430572178803" lon="-9.058871218440659">
        <ele>0.0</ele>
    </trkpt>
    <trkpt lat="38.895379309191199" lon="-9.058881769208879">
        <ele>0.0</ele>
    </trkpt>
    <trkpt lat="38.895353749135197" lon="-9.058895041920589">
        <ele>0.0</ele>
    </trkpt>
    <trkpt lat="38.8953302076496" lon="-9.05888301366938">
        <ele>0.0</ele>
    </trkpt>
    <trkpt lat="38.895307322817303" lon="-9.058870873452189">
        <ele>0.0</ele>
    </trkpt>
    <trkpt lat="38.895261021363503" lon="-9.0588569025051">
        <ele>0.0</ele>
    </trkpt>
    <trkpt lat="38.895242352740397" lon="-9.058866356732089">
        <ele>0.0</ele>
    </trkpt>
    <trkpt lat="38.895234569589299" lon="-9.05889613041886">
        <ele>0.0</ele>
    </trkpt>
    <trkpt lat="38.895237354382303" lon="-9.05893437328249">
        <ele>0.0</ele>
    </trkpt>
    <trkpt lat="38.895254717855899" lon="-9.05896828798463">
        <ele>0.0</ele>
    </trkpt>
    <trkpt lat="38.895293344810199" lon="-9.058986605607929">
        <ele>0.0</ele>
    </trkpt>
    <trkpt lat="38.8953128142116" lon="-9.05897893972902">
        <ele>0.0</ele>
    </trkpt>
    <trkpt lat="38.895335010258698" lon="-9.05894133673811">
        <ele>0.0</ele>
    </trkpt>
    <trkpt lat="38.895366888821002" lon="-9.05890600516792">
        <ele>0.0</ele>
    </trkpt>
    <trkpt lat="38.895397579306902" lon="-9.05889273337864">
        <ele>0.0</ele>
    </trkpt>
    <trkpt lat="38.895431749241602" lon="-9.05888445895468">
        <ele>0.0</ele>
    </trkpt>
    <trkpt lat="38.895465737453897" lon="-9.058910422788911">
        <ele>0.0</ele>
    </trkpt>
    <trkpt lat="38.895490025896699" lon="-9.05894230889832">
        <ele>0.0</ele>
    </trkpt>
    <trkpt lat="38.895516335393403" lon="-9.05896989429783">
        <ele>0.0</ele>
    </trkpt>
    <trkpt lat="38.895545254983503" lon="-9.05898990940676">
        <ele>0.0</ele>
    </trkpt>
    <trkpt lat="38.895610327540702" lon="-9.05901513987112">
        <ele>0.0</ele>
    </trkpt>
    <trkpt lat="38.895723427803603" lon="-9.059035486820269">
        <ele>0.0</ele>
    </trkpt>
    <trkpt lat="38.895826266697597" lon="-9.059062609468381">
        <ele>0.0</ele>
    </trkpt>
    <trkpt lat="38.895897054911899" lon="-9.05908447469251">
        <ele>0.0</ele>
    </trkpt>
    <trkpt lat="38.895978216299397" lon="-9.059096589345829">
        <ele>0.0</ele>
    </trkpt>
    <trkpt lat="38.895990253419399" lon="-9.059151593778269">
        <ele>0.0</ele>
    </trkpt>
    <trkpt lat="38.895991757986899" lon="-9.05929368833141">
        <ele>0.0</ele>
    </trkpt>
    <trkpt lat="38.896024499215301" lon="-9.0594295745554">
        <ele>0.0</ele>
    </trkpt>
    <trkpt lat="38.8960827131475" lon="-9.05960324919492">
        <ele>0.0</ele>
    </trkpt>
    <trkpt lat="38.896133056677797" lon="-9.05974637802151">
        <ele>0.0</ele>
    </trkpt>
    <trkpt lat="38.896196911059803" lon="-9.05986899350725">
        <ele>0.0</ele>
    </trkpt>
    <trkpt lat="38.896262171001197" lon="-9.05995368986855">
        <ele>0.0</ele>
    </trkpt>
    <trkpt lat="38.896329952724599" lon="-9.06005932665725">
        <ele>0.0</ele>
    </trkpt>
    <trkpt lat="38.896366111979802" lon="-9.0601555387505">
        <ele>0.0</ele>
    </trkpt>
    <trkpt lat="38.896383971077299" lon="-9.06025138328496">
        <ele>0.0</ele>
    </trkpt>
    <trkpt lat="38.896425824145503" lon="-9.06034852698544">
        <ele>0.0</ele>
    </trkpt>
    <trkpt lat="38.896425643782997" lon="-9.060416812207761">
        <ele>0.0</ele>
    </trkpt>
    <trkpt lat="38.896410385208902" lon="-9.06048147359898">
        <ele>0.0</ele>
    </trkpt>
    <trkpt lat="38.8963990576272" lon="-9.06057098807662">
        <ele>0.0</ele>
    </trkpt>
    <trkpt lat="38.896399790434799" lon="-9.060629516122489">
        <ele>0.0</ele>
    </trkpt>
    <trkpt lat="38.896400389287798" lon="-9.060703275276101">
        <ele>0.0</ele>
    </trkpt>
    <trkpt lat="38.896396174849002" lon="-9.060761550420921">
        <ele>0.0</ele>
    </trkpt>
    <trkpt lat="38.896388567398198" lon="-9.060816394611861">
        <ele>0.0</ele>
    </trkpt>
    <trkpt lat="38.896375104005998" lon="-9.06088056532827">
        <ele>0.0</ele>
    </trkpt>
    <trkpt lat="38.896367073061498" lon="-9.060953719438681">
        <ele>0.0</ele>
    </trkpt>
    <trkpt lat="38.896382177381199" lon="-9.06100076030641">
        <ele>0.0</ele>
    </trkpt>
    <trkpt lat="38.8964076207589" lon="-9.06102382921337">
        <ele>0.0</ele>
    </trkpt>
    <trkpt lat="38.8965491353554" lon="-9.06102405751005">
        <ele>0.0</ele>
    </trkpt>
    <trkpt lat="38.896625463738999" lon="-9.06101787245867">
        <ele>0.0</ele>
    </trkpt>
    <trkpt lat="38.896742268506998" lon="-9.061113619903351">
        <ele>0.0</ele>
    </trkpt>
    <trkpt lat="38.896795093873699" lon="-9.06115571594041">
        <ele>0.0</ele>
    </trkpt>
    <trkpt lat="38.896877782685699" lon="-9.061176166990681">
        <ele>0.0</ele>
    </trkpt>
    <trkpt lat="38.8969785073606" lon="-9.06119691278127">
        <ele>0.0</ele>
    </trkpt>
    <trkpt lat="38.897053053241301" lon="-9.06131577314674">
        <ele>0.0</ele>
    </trkpt>
    <trkpt lat="38.897116159775699" lon="-9.061456067422339">
        <ele>0.0</ele>
    </trkpt>
    <trkpt lat="38.897150747462298" lon="-9.061531237922891">
        <ele>0.0</ele>
    </trkpt>
    <trkpt lat="38.8972311636564" lon="-9.06165824657017">
        <ele>0.0</ele>
    </trkpt>
    <trkpt lat="38.897279034282498" lon="-9.06172995612808">
        <ele>0.0</ele>
    </trkpt>
    <trkpt lat="38.897307053164603" lon="-9.061782367525639">
        <ele>0.0</ele>
    </trkpt>
    <trkpt lat="38.897322692513299" lon="-9.061857442704239">
        <ele>0.0</ele>
    </trkpt>
    <trkpt lat="38.8973581971238" lon="-9.06200457904194">
        <ele>0.0</ele>
    </trkpt>
    <trkpt lat="38.897374590991703" lon="-9.062130803265999">
        <ele>0.0</ele>
    </trkpt>
    <trkpt lat="38.897380598494401" lon="-9.062274819173281">
        <ele>0.0</ele>
    </trkpt>
    <trkpt lat="38.897371142959699" lon="-9.06249385126975">
        <ele>0.0</ele>
    </trkpt>
    <trkpt lat="38.897379815415903" lon="-9.06266697714474">
        <ele>0.0</ele>
    </trkpt>
    <trkpt lat="38.897369905585698" lon="-9.062799561195369">
        <ele>0.0</ele>
    </trkpt>
    <trkpt lat="38.897383723865303" lon="-9.062934662066899">
        <ele>0.0</ele>
    </trkpt>
    <trkpt lat="38.897411719372997" lon="-9.063045255414419">
        <ele>0.0</ele>
    </trkpt>
    <trkpt lat="38.897422788962203" lon="-9.063109745030561">
        <ele>0.0</ele>
    </trkpt>
    <trkpt lat="38.897457231402797" lon="-9.063154092637699">
        <ele>0.0</ele>
    </trkpt>
    <trkpt lat="38.8975400564875" lon="-9.063177483834631">
        <ele>0.0</ele>
    </trkpt>
    <trkpt lat="38.897639843221803" lon="-9.06320895830356">
        <ele>0.0</ele>
    </trkpt>
    <trkpt lat="38.897687007073898" lon="-9.06325889305921">
        <ele>0.0</ele>
    </trkpt>
    <trkpt lat="38.897755562796497" lon="-9.063342301554551">
        <ele>0.0</ele>
    </trkpt>
    <trkpt lat="38.897841540351898" lon="-9.06341444651626">
        <ele>0.0</ele>
    </trkpt>
    <trkpt lat="38.8978968671383" lon="-9.06349061802497">
        <ele>0.0</ele>
    </trkpt>
    <trkpt lat="38.897934985658502" lon="-9.063551681999099">
        <ele>0.0</ele>
    </trkpt>
    <trkpt lat="38.897991489958798" lon="-9.063623049184111">
        <ele>0.0</ele>
    </trkpt>
    <trkpt lat="38.898049589224101" lon="-9.0637198558434">
        <ele>0.0</ele>
    </trkpt>
    <trkpt lat="38.898100823363102" lon="-9.06381083325582">
        <ele>0.0</ele>
    </trkpt>
    <trkpt lat="38.898137024197801" lon="-9.06387910122244">
        <ele>0.0</ele>
    </trkpt>
    <trkpt lat="38.8981500605259" lon="-9.06393521565513">
        <ele>0.0</ele>
    </trkpt>
    <trkpt lat="38.898150895990398" lon="-9.063993656839919">
        <ele>0.0</ele>
    </trkpt>
    <trkpt lat="38.898140485048302" lon="-9.064029007847081">
        <ele>0.0</ele>
    </trkpt>
    <trkpt lat="38.898113956394397" lon="-9.064102927774661">
        <ele>0.0</ele>
    </trkpt>
    <trkpt lat="38.898082114200399" lon="-9.06415662989788">
        <ele>0.0</ele>
    </trkpt>
    <trkpt lat="38.898048593498402" lon="-9.06421438935033">
        <ele>0.0</ele>
    </trkpt>
    <trkpt lat="38.898024395693703" lon="-9.064241896669539">
        <ele>0.0</ele>
    </trkpt>
    <trkpt lat="38.898005049387599" lon="-9.06427209013901">
        <ele>0.0</ele>
    </trkpt>
    <trkpt lat="38.897992881150401" lon="-9.06434226802245">
        <ele>0.0</ele>
    </trkpt>
    <trkpt lat="38.897953301077401" lon="-9.0644751568883">
        <ele>0.0</ele>
    </trkpt>
    <trkpt lat="38.8979343069756" lon="-9.06465990704994">
        <ele>0.0</ele>
    </trkpt>
    <trkpt lat="38.897939162195797" lon="-9.064770287855209">
        <ele>0.0</ele>
    </trkpt>
    <trkpt lat="38.898010986175102" lon="-9.064879117938739">
        <ele>0.0</ele>
    </trkpt>
    <trkpt lat="38.898154861569999" lon="-9.06506922087268">
        <ele>0.0</ele>
    </trkpt>
    <trkpt lat="38.8981747651913" lon="-9.0651285714185">
        <ele>0.0</ele>
    </trkpt>
    <trkpt lat="38.8983818981281" lon="-9.06574253157879">
        <ele>0.0</ele>
    </trkpt>
    <trkpt lat="38.898417194271197" lon="-9.0658559739094">
        <ele>0.0</ele>
    </trkpt>
    <trkpt lat="38.898404966182497" lon="-9.06590081254571">
        <ele>0.0</ele>
    </trkpt>
    <trkpt lat="38.8983331139829" lon="-9.066016364049119">
        <ele>0.0</ele>
    </trkpt>
    <trkpt lat="38.898312575542803" lon="-9.06625603450393">
        <ele>0.0</ele>
    </trkpt>
    <trkpt lat="38.8983109075279" lon="-9.0663140828328">
        <ele>0.0</ele>
    </trkpt>
    <trkpt lat="38.8982706273395" lon="-9.066387298826919">
        <ele>0.0</ele>
    </trkpt>
    <trkpt lat="38.898318384622598" lon="-9.06682336752332">
        <ele>0.0</ele>
    </trkpt>
    <trkpt lat="38.898430000592199" lon="-9.067128128757711">
        <ele>0.0</ele>
    </trkpt>
    <trkpt lat="38.898542079982398" lon="-9.06724406136688">
        <ele>0.0</ele>
    </trkpt>
    <trkpt lat="38.8986355652725" lon="-9.06730102649362">
        <ele>0.0</ele>
    </trkpt>
    <trkpt lat="38.898657723047997" lon="-9.067429081953851">
        <ele>0.0</ele>
    </trkpt>
    <trkpt lat="38.898683271227497" lon="-9.06754054466761">
        <ele>0.0</ele>
    </trkpt>
    <trkpt lat="38.898732334375602" lon="-9.067653365520449">
        <ele>0.0</ele>
    </trkpt>
    <trkpt lat="38.898711939242197" lon="-9.067795598170459">
        <ele>0.0</ele>
    </trkpt>
    <trkpt lat="38.898717046174298" lon="-9.067876077980539">
        <ele>0.0</ele>
    </trkpt>
    <trkpt lat="38.898824056120198" lon="-9.068169188766211">
        <ele>0.0</ele>
    </trkpt>
    <trkpt lat="38.898826412727402" lon="-9.068308628341679">
        <ele>0.0</ele>
    </trkpt>
    <trkpt lat="38.898871480122502" lon="-9.068360747730001">
        <ele>0.0</ele>
    </trkpt>
    <trkpt lat="38.899119649763598" lon="-9.0683749517856">
        <ele>0.0</ele>
    </trkpt>
    <trkpt lat="38.899338811725301" lon="-9.06858414145672">
        <ele>0.0</ele>
    </trkpt>
    <trkpt lat="38.899551709618898" lon="-9.06877251179354">
        <ele>0.0</ele>
    </trkpt>
    <trkpt lat="38.8996790246876" lon="-9.068969768799841">
        <ele>0.0</ele>
    </trkpt>
    <trkpt lat="38.8999062019736" lon="-9.069132310035901">
        <ele>0.0</ele>
    </trkpt>
    <trkpt lat="38.9001043808925" lon="-9.069215675993551">
        <ele>0.0</ele>
    </trkpt>
    <trkpt lat="38.900170761073802" lon="-9.069276751286081">
        <ele>0.0</ele>
    </trkpt>
    <trkpt lat="38.900444572896902" lon="-9.06970358295311">
        <ele>0.0</ele>
    </trkpt>
    <trkpt lat="38.900598209399703" lon="-9.069879972177651">
        <ele>0.0</ele>
    </trkpt>
    <trkpt lat="38.900625527277398" lon="-9.07011559352147">
        <ele>0.0</ele>
    </trkpt>
    <trkpt lat="38.900695277840398" lon="-9.070289761937721">
        <ele>0.0</ele>
    </trkpt>
    <trkpt lat="38.9008635524523" lon="-9.07043420342805">
        <ele>0.0</ele>
    </trkpt>
    <trkpt lat="38.900894098958901" lon="-9.070517071584829">
        <ele>0.0</ele>
    </trkpt>
    <trkpt lat="38.900827983437097" lon="-9.07065611209714">
        <ele>0.0</ele>
    </trkpt>
    <trkpt lat="38.9007614780284" lon="-9.070820681092711">
        <ele>0.0</ele>
    </trkpt>
    <trkpt lat="38.900721911880197" lon="-9.0709792688271">
        <ele>0.0</ele>
    </trkpt>
    <trkpt lat="38.9006565026964" lon="-9.07107245634632">
        <ele>0.0</ele>
    </trkpt>
    <trkpt lat="38.9004766119129" lon="-9.071137976169901">
        <ele>0.0</ele>
    </trkpt>
    <trkpt lat="38.900218379636001" lon="-9.071179180645879">
        <ele>0.0</ele>
    </trkpt>
    <trkpt lat="38.900233139651903" lon="-9.07120510940565">
        <ele>0.0</ele>
    </trkpt>
    <trkpt lat="38.9003431165468" lon="-9.07126541896776">
        <ele>0.0</ele>
    </trkpt>
    <trkpt lat="38.9005025756355" lon="-9.07136206304461">
        <ele>0.0</ele>
    </trkpt>
    <trkpt lat="38.900573382563699" lon="-9.07140831389979">
        <ele>0.0</ele>
    </trkpt>
    <trkpt lat="38.900674144945" lon="-9.07140904253005">
        <ele>0.0</ele>
    </trkpt>
    <trkpt lat="38.900812648563502" lon="-9.071452957159851">
        <ele>0.0</ele>
    </trkpt>
    <trkpt lat="38.900897243366103" lon="-9.071487168432">
        <ele>0.0</ele>
    </trkpt>
    <trkpt lat="38.901023820227898" lon="-9.071579601442769">
        <ele>0.0</ele>
    </trkpt>
    <trkpt lat="38.901144875230003" lon="-9.071389418938439">
        <ele>0.0</ele>
    </trkpt>
    <trkpt lat="38.901393496285301" lon="-9.071419044861051">
        <ele>0.0</ele>
    </trkpt>
    <trkpt lat="38.901355806604698" lon="-9.071639828096741">
        <ele>0.0</ele>
    </trkpt>
    <trkpt lat="38.9012025884903" lon="-9.07175570346083">
        <ele>0.0</ele>
    </trkpt>
    <trkpt lat="38.901078161676502" lon="-9.07157172906755">
        <ele>0.0</ele>
    </trkpt>
    <trkpt lat="38.901022949916097" lon="-9.071621547289419">
        <ele>0.0</ele>
    </trkpt>
    <trkpt lat="38.9010327876086" lon="-9.071774088641041">
        <ele>0.0</ele>
    </trkpt>
    <trkpt lat="38.900920903412597" lon="-9.07183936768684">
        <ele>0.0</ele>
    </trkpt>
    <trkpt lat="38.900802962200103" lon="-9.07186457366862">
        <ele>0.0</ele>
    </trkpt>
    <trkpt lat="38.900767920849802" lon="-9.07192867314436">
        <ele>0.0</ele>
    </trkpt>
    <trkpt lat="38.900268338349697" lon="-9.07193947849389">
        <ele>0.0</ele>
    </trkpt>
    <trkpt lat="38.900208535479599" lon="-9.07197074949501">
        <ele>0.0</ele>
    </trkpt>
    <trkpt lat="38.9000710437451" lon="-9.07188019910846">
        <ele>0.0</ele>
    </trkpt>
    <trkpt lat="38.899974545971403" lon="-9.071873929563649">
        <ele>0.0</ele>
    </trkpt>
    <trkpt lat="38.899960413557103" lon="-9.071888592658359">
        <ele>0.0</ele>
    </trkpt>
    <trkpt lat="38.899956117162397" lon="-9.07190511903894">
        <ele>0.0</ele>
    </trkpt>
    <trkpt lat="38.899930696913501" lon="-9.07190804611963">
        <ele>0.0</ele>
    </trkpt>
    <trkpt lat="38.899909277446902" lon="-9.07188724913237">
        <ele>0.0</ele>
    </trkpt>
    <trkpt lat="38.8999105366549" lon="-9.071867490681059">
        <ele>0.0</ele>
    </trkpt>
    <trkpt lat="38.899818475897" lon="-9.071836550695361">
        <ele>0.0</ele>
    </trkpt>
    <trkpt lat="38.899748422285903" lon="-9.07179669312271">
        <ele>0.0</ele>
    </trkpt>
    <trkpt lat="38.899679588509599" lon="-9.07179718828664">
        <ele>0.0</ele>
    </trkpt>
    <trkpt lat="38.899525669674901" lon="-9.07173375854504">
        <ele>0.0</ele>
    </trkpt>
    <trkpt lat="38.899733046003199" lon="-9.07137198217309">
        <ele>0.0</ele>
    </trkpt>
    <trkpt lat="38.899684041182198" lon="-9.071284875256881">
        <ele>0.0</ele>
    </trkpt>
    <trkpt lat="38.899491428888197" lon="-9.071366608382791">
        <ele>0.0</ele>
    </trkpt>
    <trkpt lat="38.899222525857802" lon="-9.07099502928704">
        <ele>0.0</ele>
    </trkpt>
    <trkpt lat="38.899168204414899" lon="-9.070961971955519">
        <ele>0.0</ele>
    </trkpt>
    <trkpt lat="38.8990206979514" lon="-9.07104868023907">
        <ele>0.0</ele>
    </trkpt>
    <trkpt lat="38.898918388177997" lon="-9.071043784941329">
        <ele>0.0</ele>
    </trkpt>
    <trkpt lat="38.8988174919958" lon="-9.070988047731699">
        <ele>0.0</ele>
    </trkpt>
    <trkpt lat="38.898795529986998" lon="-9.070939789731501">
        <ele>0.0</ele>
    </trkpt>
    <trkpt lat="38.898806200115402" lon="-9.07086537902949">
        <ele>0.0</ele>
    </trkpt>
    <trkpt lat="38.898821072549502" lon="-9.07078707607333">
        <ele>0.0</ele>
    </trkpt>
    <trkpt lat="38.898849594382597" lon="-9.070684951594989">
        <ele>0.0</ele>
    </trkpt>
    <trkpt lat="38.898835828378203" lon="-9.070617026267049">
        <ele>0.0</ele>
    </trkpt>
    <trkpt lat="38.8987868785118" lon="-9.07055820039605">
        <ele>0.0</ele>
    </trkpt>
    <trkpt lat="38.898759700748499" lon="-9.07053208848389">
        <ele>0.0</ele>
    </trkpt>
    <trkpt lat="38.898692871343897" lon="-9.07039760510488">
        <ele>0.0</ele>
    </trkpt>
    <trkpt lat="38.898673520342101" lon="-9.07036313036358">
        <ele>0.0</ele>
    </trkpt>
    <trkpt lat="38.898633656628299" lon="-9.070298419833319">
        <ele>0.0</ele>
    </trkpt>
    <trkpt lat="38.898609285753999" lon="-9.07025726951322">
        <ele>0.0</ele>
    </trkpt>
    <trkpt lat="38.8985862639868" lon="-9.070235119243449">
        <ele>0.0</ele>
    </trkpt>
    <trkpt lat="38.898518546280897" lon="-9.0702076214641">
        <ele>0.0</ele>
    </trkpt>
    <trkpt lat="38.8984942897049" lon="-9.070184731639269">
        <ele>0.0</ele>
    </trkpt>
    <trkpt lat="38.898461745443598" lon="-9.07015532999888">
        <ele>0.0</ele>
    </trkpt>
    <trkpt lat="38.898424495431001" lon="-9.070143695935929">
        <ele>0.0</ele>
    </trkpt>
    <trkpt lat="38.898250265124602" lon="-9.070173827927359">
        <ele>0.0</ele>
    </trkpt>
    <trkpt lat="38.898202865473699" lon="-9.07016188033027">
        <ele>0.0</ele>
    </trkpt>
    <trkpt lat="38.898132989702397" lon="-9.07007930105849">
        <ele>0.0</ele>
    </trkpt>
    <trkpt lat="38.898109789677903" lon="-9.07004503879865">
        <ele>0.0</ele>
    </trkpt>
    <trkpt lat="38.898080098354399" lon="-9.06999308669479">
        <ele>0.0</ele>
    </trkpt>
    <trkpt lat="38.898074512405699" lon="-9.06992855949111">
        <ele>0.0</ele>
    </trkpt>
    <trkpt lat="38.898080251206999" lon="-9.06986181380503">
        <ele>0.0</ele>
    </trkpt>
    <trkpt lat="38.898008474435599" lon="-9.06967467937657">
        <ele>0.0</ele>
    </trkpt>
    <trkpt lat="38.898015781586103" lon="-9.06959091067735">
        <ele>0.0</ele>
    </trkpt>
    <trkpt lat="38.898035690772801" lon="-9.069521303029081">
        <ele>0.0</ele>
    </trkpt>
    <trkpt lat="38.897953231911501" lon="-9.069432516957869">
        <ele>0.0</ele>
    </trkpt>
    <trkpt lat="38.897929928197399" lon="-9.069393468834109">
        <ele>0.0</ele>
    </trkpt>
    <trkpt lat="38.897938387544599" lon="-9.06929195647893">
        <ele>0.0</ele>
    </trkpt>
    <trkpt lat="38.897897748811701" lon="-9.0692345716228">
        <ele>0.0</ele>
    </trkpt>
    <trkpt lat="38.897681957087798" lon="-9.069152392729309">
        <ele>0.0</ele>
    </trkpt>
    <trkpt lat="38.897613698259498" lon="-9.069093999071841">
        <ele>0.0</ele>
    </trkpt>
    <trkpt lat="38.897556734045203" lon="-9.069068141979781">
        <ele>0.0</ele>
    </trkpt>
    <trkpt lat="38.8973700064304" lon="-9.06903555335068">
        <ele>0.0</ele>
    </trkpt>
    <trkpt lat="38.897279209447703" lon="-9.068996425675699">
        <ele>0.0</ele>
    </trkpt>
    <trkpt lat="38.897093754821398" lon="-9.06890490627789">
        <ele>0.0</ele>
    </trkpt>
    <trkpt lat="38.897062170703698" lon="-9.06889321247702">
        <ele>0.0</ele>
    </trkpt>
    <trkpt lat="38.896929654529501" lon="-9.06890771087231">
        <ele>0.0</ele>
    </trkpt>
    <trkpt lat="38.896751297772397" lon="-9.068937422977021">
        <ele>0.0</ele>
    </trkpt>
    <trkpt lat="38.896682029372002" lon="-9.068917108961889">
        <ele>0.0</ele>
    </trkpt>
    <trkpt lat="38.896633906161902" lon="-9.068884507297451">
        <ele>0.0</ele>
    </trkpt>
    <trkpt lat="38.896607098698603" lon="-9.0688409185073">
        <ele>0.0</ele>
    </trkpt>
    <trkpt lat="38.896524429388897" lon="-9.06878457677686">
        <ele>0.0</ele>
    </trkpt>
    <trkpt lat="38.896433160348202" lon="-9.068758764719171">
        <ele>0.0</ele>
    </trkpt>
    <trkpt lat="38.896380701239799" lon="-9.06873552712165">
        <ele>0.0</ele>
    </trkpt>
    <trkpt lat="38.896286699512203" lon="-9.06864195962457">
        <ele>0.0</ele>
    </trkpt>
    <trkpt lat="38.896212762383499" lon="-9.06857664183825">
        <ele>0.0</ele>
    </trkpt>
    <trkpt lat="38.896189134333603" lon="-9.0685250371638">
        <ele>0.0</ele>
    </trkpt>
    <trkpt lat="38.896187968907299" lon="-9.06840751902126">
        <ele>0.0</ele>
    </trkpt>
    <trkpt lat="38.896166754021799" lon="-9.068347788053661">
        <ele>0.0</ele>
    </trkpt>
    <trkpt lat="38.896133261155398" lon="-9.068290941163751">
        <ele>0.0</ele>
    </trkpt>
    <trkpt lat="38.896078568583903" lon="-9.06821413442553">
        <ele>0.0</ele>
    </trkpt>
    <trkpt lat="38.896050434216498" lon="-9.068122821206639">
        <ele>0.0</ele>
    </trkpt>
    <trkpt lat="38.896043362569202" lon="-9.068084073821669">
        <ele>0.0</ele>
    </trkpt>
    <trkpt lat="38.896028477085601" lon="-9.06805318374923">
        <ele>0.0</ele>
    </trkpt>
    <trkpt lat="38.895963660534001" lon="-9.067995777681359">
        <ele>0.0</ele>
    </trkpt>
    <trkpt lat="38.895875715610302" lon="-9.06795413687316">
        <ele>0.0</ele>
    </trkpt>
    <trkpt lat="38.895849526909501" lon="-9.06793110013637">
        <ele>0.0</ele>
    </trkpt>
    <trkpt lat="38.895831956212" lon="-9.067897940012349">
        <ele>0.0</ele>
    </trkpt>
    <trkpt lat="38.895814749223398" lon="-9.067874868066189">
        <ele>0.0</ele>
    </trkpt>
    <trkpt lat="38.895767170323197" lon="-9.0678411998718">
        <ele>0.0</ele>
    </trkpt>
    <trkpt lat="38.895690788425199" lon="-9.06780378831488">
        <ele>0.0</ele>
    </trkpt>
    <trkpt lat="38.895637252988202" lon="-9.067783166135079">
        <ele>0.0</ele>
    </trkpt>
    <trkpt lat="38.895610172152203" lon="-9.06774382846587">
        <ele>0.0</ele>
    </trkpt>
    <trkpt lat="38.8955905141841" lon="-9.06773613518908">
        <ele>0.0</ele>
    </trkpt>
    <trkpt lat="38.895541913503102" lon="-9.06776353312323">
        <ele>0.0</ele>
    </trkpt>
    <trkpt lat="38.895389833779802" lon="-9.06780812656913">
        <ele>0.0</ele>
    </trkpt>
    <trkpt lat="38.895237086427102" lon="-9.06778460935177">
        <ele>0.0</ele>
    </trkpt>
    <trkpt lat="38.895148502717802" lon="-9.067799333722659">
        <ele>0.0</ele>
    </trkpt>
    <trkpt lat="38.895033183963498" lon="-9.067842657296691">
        <ele>0.0</ele>
    </trkpt>
    <trkpt lat="38.894963929188897" lon="-9.067818280096381">
        <ele>0.0</ele>
    </trkpt>
    <trkpt lat="38.894828553748198" lon="-9.067838180717141">
        <ele>0.0</ele>
    </trkpt>
    <trkpt lat="38.894800815312301" lon="-9.06786697949056">
        <ele>0.0</ele>
    </trkpt>
    <trkpt lat="38.894776510306301" lon="-9.067882267225141">
        <ele>0.0</ele>
    </trkpt>
    <trkpt lat="38.894740205385197" lon="-9.067882635888189">
        <ele>0.0</ele>
    </trkpt>
    <trkpt lat="38.894692225575803" lon="-9.06789619286698">
        <ele>0.0</ele>
    </trkpt>
    <trkpt lat="38.894649207055302" lon="-9.06787243892451">
        <ele>0.0</ele>
    </trkpt>
    <trkpt lat="38.894604738572298" lon="-9.06785760514877">
        <ele>0.0</ele>
    </trkpt>
    <trkpt lat="38.894567155757699" lon="-9.06781950989949">
        <ele>0.0</ele>
    </trkpt>
    <trkpt lat="38.8944504917866" lon="-9.06762233916491">
        <ele>0.0</ele>
    </trkpt>
    <trkpt lat="38.894387203519699" lon="-9.06746276357579">
        <ele>0.0</ele>
    </trkpt>
    <trkpt lat="38.894359107804" lon="-9.067385223447641">
        <ele>0.0</ele>
    </trkpt>
    <trkpt lat="38.894314767250101" lon="-9.06732630609376">
        <ele>0.0</ele>
    </trkpt>
    <trkpt lat="38.894230234544899" lon="-9.067269237839101">
        <ele>0.0</ele>
    </trkpt>
    <trkpt lat="38.894141176106999" lon="-9.067209691982971">
        <ele>0.0</ele>
    </trkpt>
    <trkpt lat="38.894088675764799" lon="-9.067084163663949">
        <ele>0.0</ele>
    </trkpt>
    <trkpt lat="38.894036699276199" lon="-9.06704778481321">
        <ele>0.0</ele>
    </trkpt>
    <trkpt lat="38.893944689010603" lon="-9.066905293806419">
        <ele>0.0</ele>
    </trkpt>
    <trkpt lat="38.893918165677597" lon="-9.066842174871089">
        <ele>0.0</ele>
    </trkpt>
    <trkpt lat="38.893816522239902" lon="-9.066658776649829">
        <ele>0.0</ele>
    </trkpt>
    <trkpt lat="38.893757152395203" lon="-9.06650535856688">
        <ele>0.0</ele>
    </trkpt>
    <trkpt lat="38.893686430459098" lon="-9.06630006859927">
        <ele>0.0</ele>
    </trkpt>
    <trkpt lat="38.893636937122103" lon="-9.06619857411691">
        <ele>0.0</ele>
    </trkpt>
    <trkpt lat="38.893602610981198" lon="-9.066133715299109">
        <ele>0.0</ele>
    </trkpt>
    <trkpt lat="38.893553604133203" lon="-9.06607864157303">
        <ele>0.0</ele>
    </trkpt>
    <trkpt lat="38.893529221017602" lon="-9.06603907272533">
        <ele>0.0</ele>
    </trkpt>
    <trkpt lat="38.893452107139801" lon="-9.065783293511309">
        <ele>0.0</ele>
    </trkpt>
    <trkpt lat="38.893446801072997" lon="-9.06566958470226">
        <ele>0.0</ele>
    </trkpt>
    <trkpt lat="38.893474336206197" lon="-9.06556766498244">
        <ele>0.0</ele>
    </trkpt>
    <trkpt lat="38.893453922084099" lon="-9.06539609988457">
        <ele>0.0</ele>
    </trkpt>
    <trkpt lat="38.8934848763787" lon="-9.065272018060391">
        <ele>0.0</ele>
    </trkpt>
    <trkpt lat="38.893466239524997" lon="-9.06516585557933">
        <ele>0.0</ele>
    </trkpt>
    <trkpt lat="38.893419576966402" lon="-9.065068315200429">
        <ele>0.0</ele>
    </trkpt>
    <trkpt lat="38.893306460351297" lon="-9.06501023742811">
        <ele>0.0</ele>
    </trkpt>
    <trkpt lat="38.893223358693199" lon="-9.064931911917171">
        <ele>0.0</ele>
    </trkpt>
    <trkpt lat="38.893179675847797" lon="-9.06487878533815">
        <ele>0.0</ele>
    </trkpt>
    <trkpt lat="38.8931853864011" lon="-9.06470557806432">
        <ele>0.0</ele>
    </trkpt>
    <trkpt lat="38.893195995183198" lon="-9.06450027772121">
        <ele>0.0</ele>
    </trkpt>
    <trkpt lat="38.893162828904899" lon="-9.06431478143489">
        <ele>0.0</ele>
    </trkpt>
    <trkpt lat="38.893160762528503" lon="-9.064126302362791">
        <ele>0.0</ele>
    </trkpt>
    <trkpt lat="38.893116613342997" lon="-9.063887547985001">
        <ele>0.0</ele>
    </trkpt>
    <trkpt lat="38.893073142489101" lon="-9.063735595925881">
        <ele>0.0</ele>
    </trkpt>
    <trkpt lat="38.893063687460099" lon="-9.0636028769998">
        <ele>0.0</ele>
    </trkpt>
    <trkpt lat="38.893097864506203" lon="-9.06331849162096">
        <ele>0.0</ele>
    </trkpt>
    <trkpt lat="38.893100395073397" lon="-9.06311439181227">
        <ele>0.0</ele>
    </trkpt>
    <trkpt lat="38.893120872580099" lon="-9.062971999122141">
        <ele>0.0</ele>
    </trkpt>
    <trkpt lat="38.893121919292298" lon="-9.06285801710284">
        <ele>0.0</ele>
    </trkpt>
    <trkpt lat="38.893135861152601" lon="-9.06279698822974">
        <ele>0.0</ele>
    </trkpt>
    <trkpt lat="38.8931924499404" lon="-9.062678928808619">
        <ele>0.0</ele>
    </trkpt>
    <trkpt lat="38.893217159704797" lon="-9.062608866892459">
        <ele>0.0</ele>
    </trkpt>
    <trkpt lat="38.8932292217631" lon="-9.06250798245234">
        <ele>0.0</ele>
    </trkpt>
    <trkpt lat="38.893245369294803" lon="-9.062424083174641">
        <ele>0.0</ele>
    </trkpt>
    <trkpt lat="38.893252766884103" lon="-9.06234814884596">
        <ele>0.0</ele>
    </trkpt>
    <trkpt lat="38.893235942105797" lon="-9.0622489937921">
        <ele>0.0</ele>
    </trkpt>
    <trkpt lat="38.893212036500799" lon="-9.06220745426806">
        <ele>0.0</ele>
    </trkpt>
    <trkpt lat="38.893117461696903" lon="-9.06211551978901">
        <ele>0.0</ele>
    </trkpt>
    <trkpt lat="38.893022014787398" lon="-9.062021303026251">
        <ele>0.0</ele>
    </trkpt>
    <trkpt lat="38.892981224942702" lon="-9.061969992112131">
        <ele>0.0</ele>
    </trkpt>
    <trkpt lat="38.892923327269898" lon="-9.06179451868398">
        <ele>0.0</ele>
    </trkpt>
    <trkpt lat="38.892880010257002" lon="-9.061670093276691">
        <ele>0.0</ele>
    </trkpt>
    <trkpt lat="38.892835772713802" lon="-9.061610473896589">
        <ele>0.0</ele>
    </trkpt>
    <trkpt lat="38.892676812821399" lon="-9.06138596631868">
        <ele>0.0</ele>
    </trkpt>
    <trkpt lat="38.892650915355901" lon="-9.06131468282925">
        <ele>0.0</ele>
    </trkpt>
    <trkpt lat="38.892658037763603" lon="-9.06124777863988">
        <ele>0.0</ele>
    </trkpt>
    <trkpt lat="38.892680009690501" lon="-9.06121800475951">
        <ele>0.0</ele>
    </trkpt>
    <trkpt lat="38.892717408535901" lon="-9.06119826576019">
        <ele>0.0</ele>
    </trkpt>
    <trkpt lat="38.892841325612601" lon="-9.06121081968301">
        <ele>0.0</ele>
    </trkpt>
    <trkpt lat="38.892946906556404" lon="-9.06123406371584">
        <ele>0.0</ele>
    </trkpt>
    <trkpt lat="38.893056569740402" lon="-9.06127828439562">
        <ele>0.0</ele>
    </trkpt>
    <trkpt lat="38.893160101870201" lon="-9.061287123664361">
        <ele>0.0</ele>
    </trkpt>
    <trkpt lat="38.893251709950903" lon="-9.061315985681199">
        <ele>0.0</ele>
    </trkpt>
    <trkpt lat="38.893320750431897" lon="-9.06129334358147">
        <ele>0.0</ele>
    </trkpt>
    <trkpt lat="38.893349341709801" lon="-9.06122586049116">
        <ele>0.0</ele>
    </trkpt>
    <trkpt lat="38.8933349430337" lon="-9.06113575080024">
        <ele>0.0</ele>
    </trkpt>
    <trkpt lat="38.893344257150403" lon="-9.061040695524611">
        <ele>0.0</ele>
    </trkpt>
    <trkpt lat="38.893315509291703" lon="-9.06090783471946">
        <ele>0.0</ele>
    </trkpt>
    <trkpt lat="38.893281976899999" lon="-9.06069371799806">
        <ele>0.0</ele>
    </trkpt>
    <trkpt lat="38.893228764344897" lon="-9.060531305677729">
        <ele>0.0</ele>
    </trkpt>
    <trkpt lat="38.893182007003297" lon="-9.060369649784009">
        <ele>0.0</ele>
    </trkpt>
    <trkpt lat="38.893083232235902" lon="-9.06024588500658">
        <ele>0.0</ele>
    </trkpt>
    <trkpt lat="38.893004039666103" lon="-9.060088091667719">
        <ele>0.0</ele>
    </trkpt>
    <trkpt lat="38.8928918256834" lon="-9.05990756537885">
        <ele>0.0</ele>
    </trkpt>
    <trkpt lat="38.892791872967301" lon="-9.05967177219161">
        <ele>0.0</ele>
    </trkpt>
    <trkpt lat="38.893100881531304" lon="-9.0594286435842">
        <ele>0.0</ele>
    </trkpt>
    <trkpt lat="38.893409693284703" lon="-9.05918619309656">
        <ele>0.0</ele>
    </trkpt>
    <trkpt lat="38.893849843354801" lon="-9.05843923536548">
        <ele>0.0</ele>
    </trkpt>
    <trkpt lat="38.893882106290803" lon="-9.05827553067593">
        <ele>0.0</ele>
    </trkpt>
    <trkpt lat="38.893990237878" lon="-9.058101058027111">
        <ele>0.0</ele>
    </trkpt>
    <trkpt lat="38.894143163919303" lon="-9.05789090771559">
        <ele>0.0</ele>
    </trkpt>
    <trkpt lat="38.894281664232402" lon="-9.05773054905762">
        <ele>0.0</ele>
    </trkpt>
    <trkpt lat="38.894389802239601" lon="-9.057514463797229">
        <ele>0.0</ele>
    </trkpt>
    <trkpt lat="38.894465165322998" lon="-9.05739536297347">
        <ele>0.0</ele>
    </trkpt>
    <trkpt lat="38.894531185541197" lon="-9.0572919840073">
        <ele>0.0</ele>
    </trkpt>
    <trkpt lat="38.894603420878099" lon="-9.057138602747131">
        <ele>0.0</ele>
    </trkpt>
    <trkpt lat="38.894662427453198" lon="-9.05700001409577">
        <ele>0.0</ele>
    </trkpt>
    <trkpt lat="38.894747426556698" lon="-9.0569139757102">
        <ele>0.0</ele>
    </trkpt>
    <trkpt lat="38.8948522617317" lon="-9.056857736205179">
        <ele>0.0</ele>
    </trkpt>
    <trkpt lat="38.8950016959" lon="-9.056826925623589">
        <ele>0.0</ele>
    </trkpt>
    <trkpt lat="38.895055501454699" lon="-9.056757836245">
        <ele>0.0</ele>
    </trkpt>
    <trkpt lat="38.895068733444703" lon="-9.056704855306791">
        <ele>0.0</ele>
    </trkpt>
    <trkpt lat="38.8951046067683" lon="-9.05664555381659">
        <ele>0.0</ele>
    </trkpt>
    <trkpt lat="38.895111424794599" lon="-9.056532522970761">
        <ele>0.0</ele>
    </trkpt>
    <trkpt lat="38.8951306937646" lon="-9.056386836137669">
        <ele>0.0</ele>
    </trkpt>
    <trkpt lat="38.895134007431899" lon="-9.056301491164421">
        <ele>0.0</ele>
    </trkpt>
    <trkpt lat="38.895158661618403" lon="-9.05623530330246">
        <ele>0.0</ele>
    </trkpt>
    <trkpt lat="38.895252734902598" lon="-9.056081559307611">
        <ele>0.0</ele>
    </trkpt>
    <trkpt lat="38.8952790415225" lon="-9.05606675193742">
        <ele>0.0</ele>
    </trkpt>
    <trkpt lat="38.895346314899797" lon="-9.05595441664919">
        <ele>0.0</ele>
    </trkpt>
    <trkpt lat="38.8955884007229" lon="-9.05552777989999">
        <ele>0.0</ele>
    </trkpt>
    <trkpt lat="38.8956320940746" lon="-9.05548750799535">
        <ele>0.0</ele>
    </trkpt>
    <trkpt lat="38.895667034785703" lon="-9.05541150462887">
        <ele>0.0</ele>
    </trkpt>
    <trkpt lat="38.895706967949501" lon="-9.055362937737399">
        <ele>0.0</ele>
    </trkpt>
    <trkpt lat="38.895762515227098" lon="-9.05532203268222">
        <ele>0.0</ele>
    </trkpt>
    <trkpt lat="38.895781245420601" lon="-9.055264286022631">
        <ele>0.0</ele>
    </trkpt>
    <trkpt lat="38.895861308797798" lon="-9.055149552130199">
        <ele>0.0</ele>
    </trkpt>
    <trkpt lat="38.895891922300898" lon="-9.055125768150591">
        <ele>0.0</ele>
    </trkpt>
    <trkpt lat="38.895901268545401" lon="-9.05509766634521">
        <ele>0.0</ele>
    </trkpt>
    <trkpt lat="38.895919086876503" lon="-9.05506523936103">
        <ele>0.0</ele>
    </trkpt>
    <trkpt lat="38.8959335502215" lon="-9.05500771940134">
        <ele>0.0</ele>
    </trkpt>
    <trkpt lat="38.895943699141803" lon="-9.054947461918159">
        <ele>0.0</ele>
    </trkpt>
    <trkpt lat="38.8959779884959" lon="-9.05491422543801">
        <ele>0.0</ele>
    </trkpt>
    <trkpt lat="38.896016322641401" lon="-9.054881101072141">
        <ele>0.0</ele>
    </trkpt>
    <trkpt lat="38.8960836568003" lon="-9.054826874348249">
        <ele>0.0</ele>
    </trkpt>
    <trkpt lat="38.896170308518897" lon="-9.054635899564961">
        <ele>0.0</ele>
    </trkpt>
    <trkpt lat="38.896190306142898" lon="-9.05458374264091">
        <ele>0.0</ele>
    </trkpt>
    <trkpt lat="38.896229952652803" lon="-9.05451607785167">
        <ele>0.0</ele>
    </trkpt>
    <trkpt lat="38.896273053263002" lon="-9.0544964997985">
        <ele>0.0</ele>
    </trkpt>
    <trkpt lat="38.896369513908802" lon="-9.05450548960752">
        <ele>0.0</ele>
    </trkpt>
    <trkpt lat="38.896457238835602" lon="-9.054533656594">
        <ele>0.0</ele>
    </trkpt>
    <trkpt lat="38.896534533552298" lon="-9.054419697334289">
        <ele>0.0</ele>
    </trkpt>
    <trkpt lat="38.896614791587901" lon="-9.054320875230781">
        <ele>0.0</ele>
    </trkpt>
    <trkpt lat="38.8967081248921" lon="-9.05420204387611">
        <ele>0.0</ele>
    </trkpt>
    <trkpt lat="38.896739313039497" lon="-9.054165459302761">
        <ele>0.0</ele>
    </trkpt>
    <trkpt lat="38.896597410321299" lon="-9.053985228668139">
        <ele>0.0</ele>
    </trkpt>
    <trkpt lat="38.896547602884702" lon="-9.053870183025349">
        <ele>0.0</ele>
    </trkpt>
    <trkpt lat="38.896600226444001" lon="-9.05367375000691">
        <ele>0.0</ele>
    </trkpt>
    <trkpt lat="38.8969112727736" lon="-9.05322461762661">
        <ele>0.0</ele>
    </trkpt>
    <trkpt lat="38.897231289740503" lon="-9.05280872856229">
        <ele>0.0</ele>
    </trkpt>
    <trkpt lat="38.897280592299801" lon="-9.05281557028224">
        <ele>0.0</ele>
    </trkpt>
    <trkpt lat="38.897417005100799" lon="-9.05267729457057">
        <ele>0.0</ele>
    </trkpt>
    <trkpt lat="38.897740840051597" lon="-9.05236073286034">
        <ele>0.0</ele>
    </trkpt>
    <trkpt lat="38.897846421679297" lon="-9.05227807491363">
        <ele>0.0</ele>
    </trkpt>
    <trkpt lat="38.897900920922197" lon="-9.05220439265471">
        <ele>0.0</ele>
    </trkpt>
    <trkpt lat="38.897952657352398" lon="-9.052197616491069">
        <ele>0.0</ele>
    </trkpt>
    <trkpt lat="38.897953600174802" lon="-9.052359388147149">
        <ele>0.0</ele>
    </trkpt>
    <trkpt lat="38.898057025418602" lon="-9.05273687673273">
        <ele>0.0</ele>
    </trkpt>
    <trkpt lat="38.898255221066201" lon="-9.052841791927991">
        <ele>0.0</ele>
    </trkpt>
  </trkseg>
</trk>
</gpx>
